[{"OBJECT_NAME":"YAOGAN-43 03C","OBJECT_ID":"2024-190C","EPOCH":"2026-03-09T13:09:38.342016","MEAN_MOTION":15.23076374,"ECCENTRICITY":0.00060361,"INCLINATION":34.9956,"RA_OF_ASC_NODE":104.7228,"ARG_OF_PERICENTER":169.773,"MEAN_ANOMALY":190.3109,"EPHEMERIS_TYPE":0,"CLASSIFICATION_TYPE":"U","NORAD_CAT_ID":61619,"ELEMENT_SET_NO":999,"REV_AT_EPOCH":7662,"BSTAR":2.5482015e-5,"MEAN_MOTION_DOT":5.78e-6,"MEAN_MOTION_DDOT":0},{"OBJECT_NAME":"PELICAN-5","OBJECT_ID":"2025-276B","EPOCH":"2026-03-09T22:00:01.999584","MEAN_MOTION":15.24716853,"ECCENTRICITY":6.9e-5,"INCLINATION":97.424,"RA_OF_ASC_NODE":144.3271,"ARG_OF_PERICENTER":285.782,"MEAN_ANOMALY":285.5775,"EPHEMERIS_TYPE":0,"CLASSIFICATION_TYPE":"U","NORAD_CAT_ID":66667,"ELEMENT_SET_NO":999,"REV_AT_EPOCH":130,"BSTAR":-7.274852e-5,"MEAN_MOTION_DOT":-1.868e-5,"MEAN_MOTION_DDOT":0}]
